FENGYUN 1C DEB          
1 30206U 99025VP  17345.89807733  .00000140  00000-0  50611-4 0  9993
2 30206  98.4241  19.0092 0160277 254.4694 103.8751 14.41647138572355
